      2.10          N: GNSS NAV DATA                        RINEX VERSION / TYPE
fic2rin                                 04/18/2024 00:59:02 PGM / RUN BY / DATE
                                                            END OF HEADER
8  24  4 17  1 59 44.0  .126400962472D-03  .229647412198D-10  .000000000000D+00
     .690000000000D+02  .172500000000D+02  .462304971143D-08  .994159935095D+00
     .970438122749D-06  .945943838451D-02  .761635601521D-05  .515361712265D+04
     .266384000000D+06 -.931322574615D-07  .169232644684D+01  .158324837685D-06
     .953500719372D+00  .228968750000D+03  .355152683546D+00 -.813033866124D-08
    -.341442793891D-09  .100000000000D+01  .231000000000D+04  .000000000000D+00
     .240000000000D+01  .000000000000D+00  .465661287308D-08  .690000000000D+02
     .259200000000D+06  .400000000000D+01
32 24  4 17  8  0  0.0 -.618185847998D-03 -.341060513165D-12  .000000000000D+00
     .560000000000D+02 -.678750000000D+02  .462983570838D-08 -.139816511480D+01
    -.343285501003D-05  .773094268516D-02  .771135091782D-05  .515366146851D+04
     .288000000000D+06  .145286321640D-06 -.142628928624D+01  .987201929092D-07
     .961323479233D+00  .229343750000D+03 -.214018251259D+01 -.799926177279D-08
     .321441960776D-11  .100000000000D+01  .231000000000D+04  .000000000000D+00
     .240000000000D+01  .000000000000D+00  .931322574615D-09  .560000000000D+02
     .280800000000D+06  .400000000000D+01
27 24  4 17  8  0  0.0 -.191219151020D-04 -.227373675443D-11  .000000000000D+00
     .440000000000D+02  .189687500000D+02  .428946438769D-08 -.205020166043D+01
     .927597284317D-06  .125723583624D-01  .726431608200D-05  .515367794991D+04
     .288000000000D+06  .106170773506D-06  .171828926068D+01 -.132247805595D-06
     .962492539495D+00  .240218750000D+03  .784857297714D+00 -.777282376931D-08
    -.228580949885D-09  .100000000000D+01  .231000000000D+04  .000000000000D+00
     .340000000000D+01  .000000000000D+00  .186264514923D-08  .440000000000D+02
     .280800000000D+06  .400000000000D+01
29 24  4 17  8  0  0.0 -.601598527282D-03  .125055521494D-11  .000000000000D+00
     .250000000000D+02  .170625000000D+02  .417053086221D-08 -.208867197327D+01
     .897794961929D-06  .282013043761D-02  .805407762527D-05  .515361096001D+04
     .288000000000D+06 -.260770320892D-07  .180120800894D+01  .484287738800D-07
     .971662693720D+00  .231031250000D+03  .250181666492D+01 -.787068498848D-08
    -.287869133762D-09  .100000000000D+01  .231000000000D+04  .000000000000D+00
     .240000000000D+01  .000000000000D+00 -.977888703346D-08  .250000000000D+02
     .280800000000D+06  .400000000000D+01
21 24  4 17  8  0  0.0  .126850791276D-03 -.159161572810D-11  .000000000000D+00
     .580000000000D+02  .705937500000D+02  .406052628008D-08 -.224290182925D+01
     .392459332943D-05  .252285846509D-01  .775977969170D-05  .515371058083D+04
     .288000000000D+06 -.404193997383D-06  .268210086367D+01  .303611159325D-06
     .961886088268D+00  .237625000000D+03 -.588567079656D+00 -.784068373881D-08
     .178578867098D-09  .100000000000D+01  .231000000000D+04  .000000000000D+00
     .240000000000D+01  .000000000000D+00 -.102445483208D-07  .580000000000D+02
     .280800000000D+06  .400000000000D+01
20 24  4 17  8  0  0.0  .379879027605D-03 -.136424205266D-11  .000000000000D+00
     .330000000000D+02  .393750000000D+01  .474234039466D-08  .263258517993D+01
     .257045030594D-06  .366166548338D-02  .371970236301D-05  .515376658821D+04
     .288000000000D+06 -.540167093277D-07 -.263960568869D+01 -.204890966415D-07
     .953386981880D+00  .302093750000D+03 -.259434408148D+01 -.830677458193D-08
     .233581158164D-09  .100000000000D+01  .231000000000D+04  .000000000000D+00
     .240000000000D+01  .000000000000D+00 -.838190317154D-08  .330000000000D+02
     .280800000000D+06  .400000000000D+01
17 24  4 17  8  0  0.0  .711040105671D-03 -.682121026330D-12  .000000000000D+00
     .170000000000D+02  .230312500000D+02  .416945938901D-08 -.210383652064D+01
     .129267573357D-05  .134016250959D-01  .846013426781D-05  .515370937347D+04
     .288000000000D+06  .163912773132D-06  .178629679802D+01  .240281224251D-06
     .969254963165D+00  .220937500000D+03 -.132562100267D+01 -.773210778761D-08
    -.418231706744D-09  .100000000000D+01  .231000000000D+04  .000000000000D+00
     .240000000000D+01  .000000000000D+00 -.111758708954D-07  .170000000000D+02
     .280800000000D+06  .400000000000D+01
16 24  4 17  8  0  0.0 -.314670614898D-03  .943600753089D-11  .000000000000D+00
     .680000000000D+02  .269375000000D+02  .463055002385D-08 -.118943036027D+01
     .150501728058D-05  .139541625977D-01  .602379441261D-05  .515375891495D+04
     .288000000000D+06  .327825546265D-06  .764738271059D+00  .162050127983D-06
     .962351382529D+00  .262687500000D+03  .836752978006D+00 -.807212195057D-08
    -.197865384745D-09  .100000000000D+01  .231000000000D+04  .000000000000D+00
     .240000000000D+01  .000000000000D+00 -.102445483208D-07  .680000000000D+02
     .280800000000D+06  .400000000000D+01
18 24  4 17  8  0  0.0 -.595890451223D-03 -.659383658785D-11  .000000000000D+00
     .146000000000D+03  .410000000000D+02  .399873799206D-08  .216702747481D+01
     .218674540520D-05  .396931578871D-02  .705383718014D-05  .515361911201D+04
     .288000000000D+06 -.707805156708D-07  .279106019157D+01  .689178705215D-07
     .974764258524D+00  .249687500000D+03 -.304235964334D+01 -.788675708652D-08
     .114647632677D-09  .100000000000D+01  .231000000000D+04  .000000000000D+00
     .240000000000D+01  .000000000000D+00 -.838190317154D-08  .146000000000D+03
     .280800000000D+06  .400000000000D+01
26 24  4 17  8  0  0.0  .165561214089D-03 -.511590769747D-11  .000000000000D+00
     .920000000000D+02  .282500000000D+02  .547522806523D-08 -.279149147591D+00
     .146776437759D-05  .883797195274D-02  .589340925217D-05  .515361734772D+04
     .288000000000D+06  .353902578354D-07  .598984684608D+00  .104308128357D-06
     .931635559549D+00  .247812500000D+03  .540681193451D+00 -.863357390872D-08
    -.151077721565D-09  .100000000000D+01  .231000000000D+04  .000000000000D+00
     .240000000000D+01  .000000000000D+00  .698491930962D-08  .920000000000D+02
     .280800000000D+06  .400000000000D+01
28 24  4 17  8  0  0.0 -.206657219678D-03 -.152340362547D-10  .000000000000D+00
     .191000000000D+03  .196875000000D+01  .458340520294D-08 -.144850842396D+00
     .311061739922D-06  .442999880761D-03  .952929258347D-05  .515363269424D+04
     .288000000000D+06  .167638063431D-07 -.401894756530D+00  .558793544769D-08
     .961673164930D+00  .195656250000D+03  .174167727580D+01 -.795175979414D-08
     .163578242262D-09  .100000000000D+01  .231000000000D+04  .000000000000D+00
     .240000000000D+01  .000000000000D+00 -.931322574615D-08  .191000000000D+03
     .280800000000D+06  .400000000000D+01
30 24  4 17  8  0  0.0 -.404012855142D-03  .557065504836D-11  .000000000000D+00
     .110000000000D+03  .281250000000D+01  .521450291926D-08  .116394102718D+01
     .406056642532D-06  .704228482209D-02  .962615013123D-05  .515366033936D+04
     .288000000000D+06  .745058059692D-08 -.367129786966D+00  .113621354103D-06
     .935722823926D+00  .183531250000D+03 -.248840425600D+01 -.832748973052D-08
     .137148569931D-09  .100000000000D+01  .231000000000D+04  .000000000000D+00
     .240000000000D+01  .000000000000D+00  .372529029846D-08  .110000000000D+03
     .280800000000D+06  .400000000000D+01
15 24  4 17  8  0  0.0  .149318482727D-03  .409272615798D-11  .000000000000D+00
     .100000000000D+03 -.855312500000D+02  .517771567264D-08 -.307854754065D+01
    -.461749732494D-05  .155207897769D-01  .616721808910D-05  .515363904572D+04
     .288000000000D+06  .238418579102D-06 -.156768524571D+01 -.154599547386D-06
     .934675474059D+00  .244656250000D+03  .130154663905D+01 -.812819571483D-08
     .357157734196D-12  .100000000000D+01  .231000000000D+04  .000000000000D+00
     .340000000000D+01  .000000000000D+00 -.107102096081D-07  .100000000000D+03
     .280800000000D+06  .400000000000D+01
8  24  4 17  8  0  0.0  .126895494759D-03  .228510543820D-10  .000000000000D+00
     .780000000000D+02  .157812500000D+02  .452161691492D-08 -.213622326817D+01
     .739470124245D-06  .946001172997D-02  .766664743423D-05  .515361808586D+04
     .288000000000D+06  .204890966415D-07  .169215224548D+01 -.126659870148D-06
     .953494251811D+00  .229437500000D+03  .355328160570D+00 -.798604693662D-08
    -.256082095419D-09  .100000000000D+01  .231000000000D+04  .000000000000D+00
     .240000000000D+01  .000000000000D+00  .465661287308D-08  .780000000000D+02
     .280800000000D+06  .400000000000D+01
13 24  4 17  8  0  0.0  .643402338028D-03  .306954461848D-11  .000000000000D+00
     .112000000000D+03 -.770937500000D+02  .432696594979D-08 -.240528654650D+01
    -.408664345741D-05  .793214968871D-02  .818632543087D-05  .515365781403D+04
     .288000000000D+06  .119209289551D-06 -.127538774445D+01 -.633299350739D-07
     .970964157652D+00  .225875000000D+03  .924678244469D+00 -.776318051049D-08
     .625026034843D-10  .100000000000D+01  .231000000000D+04  .000000000000D+00
     .240000000000D+01  .000000000000D+00 -.116415321827D-07  .112000000000D+03
     .280800000000D+06  .400000000000D+01
19 24  4 17  8  0  0.0  .469373539090D-03  .534328137292D-11  .000000000000D+00
     .116000000000D+03  .146250000000D+02  .424517682865D-08 -.876555029064D-01
     .650063157082D-06  .971637258772D-02  .862032175064D-05  .515369830704D+04
     .288000000000D+06  .111758708954D-06  .183066206654D+01 -.232830643654D-06
     .968441449051D+00  .222375000000D+03  .251206619668D+01 -.801461955536D-08
    -.412160025262D-09  .100000000000D+01  .231000000000D+04  .000000000000D+00
     .240000000000D+01  .000000000000D+00 -.153668224812D-07  .116000000000D+03
     .280800000000D+06  .400000000000D+01
